HORYU-4                 
1 41340U 16012D   20107.40792214  .00000496  00000-0  30732-4 0  9999
2 41340  31.0064   6.9035 0014116 252.7937 107.1153 15.01464753228544
E-ST@R-II               
1 41459U 16025D   20107.81850277  .00001738  00000-0  90557-4 0  9994
2 41459  98.0978 214.6266 0166569  59.5453 302.2105 15.06290941218165
AAUSAT 4                
1 41460U 16025E   20107.84939847  .00002167  00000-0  10902-3 0  9992
2 41460  98.0940 216.7738 0155131  48.8316 312.6171 15.08529734218351
BEESAT-4                
1 41619U 16040W   20107.70364665  .00001432  00000-0  62177-4 0  9996
2 41619  97.3256 168.6837 0012211  44.4704 315.7511 15.23856644199998
CANX-7                  
1 41788U 16059F   20107.83030216  .00007114  00000-0  99450-3 0  9995
2 41788  98.2527 194.1540 0034220 134.5201 225.8797 14.77519726190711
RAVAN                   
1 41849U 16067B   20107.77756461  .00000907  00000-0  80972-4 0  9995
2 41849  97.9261 216.6059 0010283  94.0552 266.1846 14.98503877187382
CELTEE 1                
1 41850U 16067C   20107.78333379  .00000767  00000-0  71577-4 0  9992
2 41850  97.9215 214.5201 0010604  94.0050 266.2384 14.97157173187278
OPTICUBE 04             
1 41851U 16067D   20107.83690239  .00000563  00000-0  54316-4 0  9996
2 41851  97.9197 214.2265 0010482  96.4465 263.7950 14.96903513187261
AEROCUBE 8D             
1 41852U 16067E   20107.85216305  .00000605  00000-0  57962-4 0  9994
2 41852  97.9212 214.0743 0011397  95.6122 264.6399 14.96881547187243
AEROCUBE 8C             
1 41853U 16067F   20107.81541920 -.00000011  00000-0  43112-5 0  9990
2 41853  97.9200 213.9478 0011193  97.3072 262.9421 14.96839851187238
PROMETHEUS 2-1          
1 41854U 16067G   20107.86467504 -.00000022  00000-0  33715-5 0  9991
2 41854  97.9219 214.2882 0011814  95.3873 264.8697 14.97148023187252
PROMETHEUS 2-3          
1 41855U 16067H   20107.86552338 -.00000056  00000-0  42925-6 0  9993
2 41855  97.9221 214.3186 0011969  95.6715 264.5871 14.97157850187252
INS-1B                  
1 41954U 17008G   20107.85296866  .00001390  00000-0  59151-4 0  9997
2 41954  97.3595 173.3441 0009951 149.4468 210.7352 15.24633134175988
BGUSAT                  
1 41999U 17008BD  20107.69360268  .00002339  00000-0  90261-4 0  9997
2 41999  97.3700 176.9938 0008797 157.5507 202.6118 15.27254538175526
DIDO-2                  
1 42000U 17008BE  20107.80444796  .00000872  00000-0  38444-4 0  9998
2 42000  97.3603 173.8225 0008777 166.3138 193.8340 15.24380450175374
PEASSS                  
1 42015U 17008BV  20107.82715479  .00001172  00000-0  49094-4 0  9992
2 42015  97.3624 175.3228 0006601 166.2266 193.9153 15.25482541175950
AL-FARABI 1             
1 42016U 17008BW  20107.68488903  .00001548  00000-0  62460-4 0  9995
2 42016  97.3650 176.1280 0006527 165.5901 194.5524 15.26284735176105
NAYIF-1 (EO-88)         
1 42017U 17008BX  20107.66523882  .00001593  00000-0  64117-4 0  9991
2 42017  97.3645 176.1196 0006587 165.5363 194.6065 15.26324660176129
NSIGHT                  
1 42726U 98067MF  20107.63086311  .00547156  17056-3  49307-3 0  9995
2 42726  51.6213 175.4262 0009587 353.6369   6.4522 16.11963029165764
UCLSAT                  
1 42765U 17036A   20107.67869249  .00001204  00000-0  53494-4 0  9998
2 42765  97.3076 163.5610 0009813 239.0099 121.0174 15.23390221157178
LITUANICASAT-2          
1 42768U 17036D   20107.74175689  .00002042  00000-0  87449-4 0  9995
2 42768  97.3129 163.5042 0013447 228.3280 131.6808 15.23839523156443
AALTO-1                 
1 42775U 17036L   20107.70975616  .00000755  00000-0  36244-4 0  9993
2 42775  97.3055 161.5804 0012495 232.0059 128.0049 15.21751809156288
URSA MAIOR              
1 42776U 17036M   20107.70630490  .00000822  00000-0  39022-4 0  9994
2 42776  97.3066 161.8354 0012302 231.6892 128.3239 15.21925022156296
COMPASS 2               
1 42777U 17036N   20107.69329941  .00001646  00000-0  71297-4 0  9994
2 42777  97.3120 163.8962 0010985 229.1367 130.8919 15.23736929156391
DIAMOND RED             
1 42783U 17036U   20107.64567875  .00000972  00000-0  44598-4 0  9991
2 42783  97.3077 162.8593 0010470 241.5583 118.4600 15.22721664156348
PEGASUS                 
1 42784U 17036V   20107.69149866  .00001107  00000-0  49845-4 0  9994
2 42784  97.3081 163.2873 0010370 240.2398 119.7807 15.23086040156378
DIAMOND GREEN           
1 42785U 17036W   20107.38161504  .00000984  00000-0  45119-4 0  9996
2 42785  97.3080 162.6358 0010349 243.3106 116.7071 15.22720089156294
DIAMOND BLUE            
1 42786U 17036X   20107.64369076  .00000967  00000-0  44386-4 0  9996
2 42786  97.3079 162.8867 0010201 242.3996 117.6205 15.22721823156334
NUDTSAT                 
1 42787U 17036Y   20107.93154396  .00001702  00000-0  72373-4 0  9991
2 42787  97.3127 164.7770 0009473 241.4532 118.5753 15.24331795156322
SUCHAI                  
1 42788U 17036Z   20107.86890956  .00001318  00000-0  57896-4 0  9999
2 42788  97.3088 163.9926 0009948 237.5014 122.5263 15.23611463156504
SKCUBE                  
1 42789U 17036AA  20107.71175873  .00001228  00000-0  54370-4 0  9992
2 42789  97.3084 163.7104 0009812 238.3702 121.6578 15.23463462156390
VZLUSAT-1               
1 42790U 17036AB  20107.85444455  .00001657  00000-0  70587-4 0  9998
2 42790  97.3106 164.6985 0009383 235.0554 124.9803 15.24322036156463
ROBUSTA-1B              
1 42792U 17036AD  20107.67311743  .00001229  00000-0  54138-4 0  9992
2 42792  97.3086 163.9051 0009380 238.7907 121.2412 15.23649731156411
CICERO 6                
1 42793U 17036AE  20107.70021812  .00000869  00000-0  39802-4 0  9992
2 42793  97.3063 163.4160 0008662 241.4310 118.6056 15.23040437156461
D-SAT                   
1 42794U 17036AF  20107.84534123  .00000367  00000-0  37173-4 0  9994
2 42794  97.5006 143.5310 0125486 210.0130 149.3856 14.91249535153519
CORVUS BC2              
1 42846U 17042X   20107.74427164  .00000110  00000-0  16017-4 0  9994
2 42846  97.5315 354.0552 0010950 119.2808 240.9507 14.92084054150206
CORVUS BC1              
1 42847U 17042Y   20107.74414415  .00000095  00000-0  14566-4 0  9999
2 42847  97.5317 354.2135 0010607 118.4663 241.7626 14.92184985150202
MIRATA                  
1 43015U 17073C   20107.72775324  .00000670  00000-0  57972-4 0  9995
2 43015  97.7210  22.2875 0252095 249.8634 107.5297 14.79555415130096
MAKERSAT 0              
1 43016U 17073D   20107.73918015  .00000448  00000-0  40804-4 0  9992
2 43016  97.7246  22.4892 0254769 250.7225 106.6272 14.79148794130073
ASTERIA                 
1 43020U 98067NH  20107.66585813  .00687428  27529-3  59788-3 0  9994
2 43020  51.6429 188.2230 0006603   8.9849 351.1283 16.12551020137787
DELLINGR (RBLE)         
1 43021U 98067NJ  20107.56387795  .00015216  00000-0  13281-3 0  9993
2 43021  51.6355 235.7736 0001187 188.1939 171.9039 15.69192049137148
AEROCUBE 7B (OCSD B)    
1 43042U 17071F   20107.85514606  .00003943  00000-0  96666-4 0  9990
2 43042  51.6391   8.7328 0004563 171.5076 188.5988 15.43186695132868
AEROCUBE 7C (OCSD C)    
1 43043U 17071G   20107.85750210  .00004002  00000-0  98051-4 0  9991
2 43043  51.6389   8.7633 0004712 175.9624 184.1401 15.43161659132830
CHEFSAT                 
1 43044U 17071H   20107.89990378  .00008353  00000-0  16792-3 0  9991
2 43044  51.6394 355.7913 0004501 179.5326 180.5667 15.47518962133010
ASGARDIA 1              
1 43049U 17071N   20107.85303753  .00003726  00000-0  91721-4 0  9992
2 43049  51.6400   8.0493 0002238 182.8135 177.2839 15.43228385132841
ISARA                   
1 43050U 17071P   20107.84437728  .00006668  00000-0  13986-3 0  9997
2 43050  51.6377 358.3163 0002243 179.8230 180.2759 15.46646545132973
PROPCUBE 2 (FAUNA)      
1 43052U 17071R   20107.79199034  .00004109  00000-0  98835-4 0  9993
2 43052  51.6394   6.9102 0002231 178.3068 181.7926 15.43648237132848
CORVUS BC3              
1 43118U 18004H   20107.74585429  .00000780  00000-0  35891-4 0  9999
2 43118  97.4481 178.5112 0008650 268.8781  91.1465 15.23273650125600
MICROMAS-2A             
1 43131U 18004W   20107.84552080  .00001842  00000-0  76524-4 0  9990
2 43131  97.4523 180.1289 0007513 266.7734  93.2644 15.25078831125707
SPACEBEE-4              
1 43139U 18004AE  20107.73297416  .00002677  00000-0  10608-3 0  9992
2 43139  97.4552 181.0541 0006803 267.2608  92.7852 15.26276649125731
SPACEBEE-3              
1 43140U 18004AF  20107.84331335  .00003304  00000-0  12708-3 0  9996
2 43140  97.4568 181.7560 0006532 264.2825  95.7669 15.27102484125796
SPACEBEE-2              
1 43141U 18004AG  20107.70371109  .00003507  00000-0  13359-3 0  9993
2 43141  97.4580 181.8370 0006495 263.8331  96.2168 15.27383702125789
SPACEBEE-1              
1 43142U 18004AH  20107.75075600  .00003855  00000-0  14512-3 0  9994
2 43142  97.4582 182.1091 0006470 263.2492  96.8011 15.27707674125793
CICERO 7                
1 43143U 18004AJ  20107.78310426  .00001676  00000-0  69783-4 0  9996
2 43143  97.4504 180.2608 0005717 279.0997  80.9594 15.25141342125713
GOMX-4B                 
1 43196U 18015E   20107.90389463  .00000458  00000-0  21697-4 0  9996
2 43196  97.4261 236.9476 0018305 325.5983  34.4064 15.24204343122524
GOMX-4A                 
1 43197U 18015F   20107.94558787  .00000831  00000-0  36724-4 0  9990
2 43197  97.4266 237.0606 0017939 325.9363 151.1047 15.24416065122541
1KUNS-PF                
1 43466U 98067NP  20107.73125490  .00121262  16480-4  40297-3 0  9996
2 43466  51.6278 217.8016 0005663 325.8597  34.2043 15.90104407110658
UBAKUSAT                
1 43467U 98067NQ  20107.64025040  .00028541  00000-0  21326-3 0  9992
2 43467  51.6328 239.1872 0000343 215.7289 144.3686 15.72466951110377
CUBERRT                 
1 43546U 98067NU  20107.54754639  .00013022  00000-0  10513-3 0  9996
2 43546  51.6339 238.5883 0003077 215.8491 144.2301 15.71248830100505
